STARLINK-5624           
1 55416U 23014AB  26068.42571833  .00001739  00000+0  15354-3 0  9996
2 55416  69.9988  85.0849 0003726 272.6312  87.4420 14.98326154171521
SHIYAN-24C 03           
1 58652U 23206C   26068.89147317  .00001350  00000+0  11928-3 0  9993
2 58652  97.3969  41.7507 0002411  66.6237 293.5240 14.97896938120432
